# FY3D (LEO)
1 43010U 17072A   25268.29572363  .00000241  00000+0  13569-3 0  9998
2 43010  98.9752 233.4806 0002557  84.7793 275.3674 14.19645948407403

# FY3E (LEO)
1 49008U 21062A   25268.24285036  .00000078  00000+0  57653-4 0  9999
2 49008  98.7478 269.6861 0002550 114.0005 246.1439 14.19863606218988

# FY3F (LEO)
1 57490U 23111A   25268.30069532  .00000193  00000+0  11143-3 0  9999
2 57490  98.7179 337.8243 0001451 104.8606 255.2731 14.19862373111275

# FY3G (LEO)
1 56232U 23055A   25268.30042145  .00045143  00000+0  73144-3 0  9993
2 56232  49.9938 271.9520 0008143 179.7674 180.3298 15.52249018138836

# C2E1 (LEO)
1 44349U 19036L   25267.63624430  .00006511  00000+0  51800-3 0  9992
2 44349  23.9989  24.2249 0001524  96.2213 263.8462 14.97592672344817

# C2E2 (LEO)
1 44351U 19036N   25267.34712826  .00006824  00000+0  54415-3 0  9992
2 44351  23.9977 142.5822 0001294  86.5876 273.4773 14.97591941343706

# C2E3 (LEO)
1 44343U 19036E   25267.99457224  .00009767  00000+0  61919-3 0  9998
2 44343  23.9988 199.9108 0000882  17.8826 342.1708 15.06642596343151

# C2E4 (LEO)
1 44350U 19036M   25267.59085898  .00006073  00000+0  48165-3 0  9991
2 44350  23.9973  86.6108 0001527  86.5490 273.5185 14.97579758344225

# C2E5 (LEO)
1 44358U 19036V   25268.13466028  .00006445  00000+0  50762-3 0  9997
2 44358  23.9990 256.9969 0000881 341.2663  18.7805 14.97956592342584

# C2E6 (LEO)
1 44353U 19036Q   25268.27996418  .00006617  00000+0  52680-3 0  9990
2 44353  23.9990 317.1109 0001809 120.8212 239.2467 14.97596639342077

# G01 (GNSS)
1 62339U 24242A   25266.57262008 -.00000104  00000+0  00000+0 0  9992
2 62339  54.9471 344.9892 0008195 342.3992 352.6385  2.00566315  5903

# G02 (GNSS)
1 28474U 04045A   25267.07386365 -.00000094  00000+0  00000+0 0  9990
2 28474  55.2774 335.6119 0168019 306.2836  62.1933  2.00565965153098

# G03 (GNSS)
1 40294U 14068A   25264.19230743 -.00000076  00000+0  00000+0 0  9998
2 40294  56.7994  41.3368 0061766  69.7530 290.9042  2.00559858 79815

# G04 (GNSS)
1 43873U 18109A   25268.00241718  .00000012  00000+0  00000+0 0  9991
2 43873  55.5194 102.6557 0035499 194.4515 337.9709  2.00574488 49752

# G05 (GNSS)
1 35752U 09043A   25268.17387509 -.00000074  00000+0  00000+0 0  9991
2 35752  56.0392  37.8796 0054411  81.9086 134.1005  2.00570380118049

# G06 (GNSS)
1 39741U 14026A   25266.72074222 -.00000099  00000+0  00000+0 0  9991
2 39741  56.6123 341.8901 0036224 316.9709  42.8041  2.00567133 83194

# G07 (GNSS)
1 32711U 08012A   25266.90163863  .00000018  00000+0  00000+0 0  9999
2 32711  54.4667 160.5608 0200653 244.2781 113.7110  2.00562026128411

# G08 (GNSS)
1 40730U 15033A   25266.48108765 -.00000025  00000+0  00000+0 0  9992
2 40730  54.1977 278.0734 0106192  25.3901 335.1502  2.00569681 74646

# G09 (GNSS)
1 40105U 14045A   25265.81429409  .00000019  00000+0  00000+0 0  9999
2 40105  55.1758  99.1270 0032964 117.2636 243.1431  2.00567666 80713

# G10 (GNSS)
1 41019U 15062A   25265.04358429 -.00000078  00000+0  00000+0 0  9998
2 41019  56.7752  41.1601 0107319 228.1224 130.9543  2.00567144 72456

# G11 (GNSS)
1 48859U 21054A   25268.26856134 -.00000099  00000+0  00000+0 0  9991
2 48859  55.2833 343.1065 0023466 228.6365 134.4237  2.00557894 31443

# G12 (GNSS)
1 29601U 06052A   25267.17647324  .00000007  00000+0  00000+0 0  9992
2 29601  54.9928 224.5528 0085349  86.9450 274.0021  2.00568734138076

# G13 (GNSS)
1 24876U 97035A   25267.95699742  .00000017  00000+0  00000+0 0  9990
2 24876  55.8535 108.9504 0095528  56.4418 304.5444  2.00563103206635

# G14 (GNSS)
1 46826U 20078A   25267.28004925  .00000007  00000+0  00000+0 0  9990
2 46826  54.0373 221.5640 0062812 203.6491 336.4839  2.00567331 36174

# G15 (GNSS)
1 32260U 07047A   25266.98231472  .00000000  00000+0  00000+0 0  9996
2 32260  53.8964  91.0522 0164577  83.8609 278.0657  2.00567879131478

# G16 (GNSS)
1 27663U 03005A   25264.13308884 -.00000024  00000+0  00000+0 0  9991
2 27663  54.9487 225.6604 0143666  50.7220 133.4845  2.00575466165915

# G17 (GNSS)
1 28874U 05038A   25265.74771109 -.00000030  00000+0  00000+0 0  9993
2 28874  55.1003 283.9608 0133781 291.4995 162.0566  2.00553668146476

# G18 (GNSS)
1 44506U 19056A   25264.42521203 -.00000102  00000+0  00000+0 0  9990
2 44506  55.7505 341.8216 0056804 196.0071 168.9790  2.00564042 44685

# G19 (GNSS)
1 28190U 04009A   25267.24443131 -.00000029  00000+0  00000+0 0  9997
2 28190  55.0535 286.4221 0107584 165.7792 267.0876  2.00563956157614

# G20 (GNSS)
1 26360U 00025A   25268.17165866 -.00000086  00000+0  00000+0 0  9990
2 26360  55.0010  30.0147 0037260 235.1909  10.6638  2.00574002185954

# G21 (GNSS)
1 64202U 25116A   25265.88198252 -.00000078  00000+0  00000+0 0  9996
2 64202  55.0478  41.9053 0002238 299.2231  88.3260  2.00564037  2512

# G22 (GNSS)
1 26407U 00040A   25268.29212296  .00000018  00000+0  00000+0 0  9996
2 26407  54.9144 225.6851 0130278 300.1619 232.9585  2.00567071184632

# G23 (GNSS)
1 45854U 20041A   25268.24003181 -.00000071  00000+0  00000+0 0  9992
2 45854  56.4934  39.2418 0058067 200.3706 343.9651  2.00564032 38723

# G24 (GNSS)
1 38833U 12053A   25268.07667184  .00000015  00000+0  00000+0 0  9992
2 38833  53.5445 154.4611 0172241  62.5249 299.3011  2.00564322 94125

# G25 (GNSS)
1 36585U 10022A   25266.99083375  .00000004  00000+0  00000+0 0  9999
2 36585  54.3196 219.2870 0122978  64.3088 139.2304  2.00575157112259

# G26 (GNSS)
1 40534U 15013A   25267.81468285  .00000011  00000+0  00000+0 0  9990
2 40534  53.2168 215.1559 0102880  36.4260 324.2491  2.00567336 76506

# G27 (GNSS)
1 39166U 13023A   25266.44463215 -.00000026  00000+0  00000+0 0  9991
2 39166  54.7186 279.8306 0133686  48.1381 313.0219  2.00565588 90530

# G28 (GNSS)
1 55268U 23009A   25265.47045729  .00000018  00000+0  00000+0 0  9995
2 55268  55.0959 159.0378 0003725 352.1521 191.6872  2.00562299 19874

# G29 (GNSS)
1 32384U 07062A   25267.54200487 -.00000025  00000+0  00000+0 0  9993
2 32384  55.2480 284.8217 0032511 163.6030   9.4049  2.00573576130183

# G30 (GNSS)
1 39533U 14008A   25267.93765011  .00000015  00000+0  00000+0 0  9994
2 39533  53.6201 160.1390 0078349 226.2428 133.1824  2.00569857 84364

# G31 (GNSS)
1 29486U 06042A   25265.41967860  .00000014  00000+0  00000+0 0  9995
2 29486  54.6861 161.9683 0106375  49.4661  69.6673  2.00557333139027

# G32 (GNSS)
1 41328U 16007A   25266.62098358  .00000015  00000+0  00000+0 0  9998
2 41328  55.3562 100.0364 0088817 242.5176 116.6433  2.00565023 70496

# C06 (GNSS)
1 36828U 10036A   25267.66863762 -.00000100  00000+0  00000+0 0  9993
2 36828  54.2778 165.3684 0047994 215.6348 327.1193  1.00248653 55439

# C04 (GNSS)
1 37210U 10057A   25268.25088128 -.00000108  00000+0  00000+0 0  9991
2 37210   2.9843  70.1765 0008453 171.5601  12.9566  1.00271734 54630

# C07 (GNSS)
1 37256U 10068A   25267.95478336 -.00000180  00000+0  00000+0 0  9993
2 37256  48.0271 275.1173 0048253 217.2326 321.6798  1.00257379 54131

# C14 (GNSS)
1 38775U 12050B   25267.03780277 -.00000025  00000+0  00000+0 0  9990
2 38775  56.3090  71.7100 0010886 357.1345   2.8754  1.86231079 88359

# C01 (GNSS)
1 44231U 19027A   25268.31908823 -.00000245  00000+0  00000+0 0  9990
2 44231   1.4582  74.3831 0006742 260.8426 288.5085  1.00268583 23429

# C24 (GNSS)
1 43582U 18062B   25264.49266473 -.00000020  00000+0  00000+0 0  9990
2 43582  54.0937 191.4297 0006064  23.6972 336.3253  1.86229924 48639

# C26 (GNSS)
1 43602U 18067A   25268.18830910  .00000013  00000+0  00000+0 0  9992
2 43602  54.1873 190.0281 0008279  31.6884 328.3835  1.86227698 48184

# C25 (GNSS)
1 43603U 18067B   25267.78565264  .00000012  00000+0  00000+0 0  9994
2 43603  54.1845 190.0060 0004897  20.9069 339.1332  1.86227249 48204

# C32 (GNSS)
1 43622U 18072A   25266.66913549 -.00000025  00000+0  00000+0 0  9995
2 43622  56.3891  71.4697 0003941 317.7553  42.2311  1.86231257 47697

# C33 (GNSS)
1 43623U 18072B   25267.07155826 -.00000025  00000+0  00000+0 0  9998
2 43623  56.3912  71.4503 0003228  17.9587 342.0685  1.86231274 47696

# C35 (GNSS)
1 43647U 18078A   25265.61962340 -.00000067  00000+0  00000+0 0  9991
2 43647  54.3327 309.3575 0005839  21.2156 338.8743  1.86232392 47175

# C34 (GNSS)
1 43648U 18078B   25265.74880951 -.00000067  00000+0  00000+0 0  9993
2 43648  54.3284 309.3542 0002423  26.6526 333.4252  1.86232417 47194

# C59 (GNSS)
1 43683U 18085A   25268.31830823 -.00000274  00000+0  00000+0 0  9999
2 43683   2.9072 104.9523 0003590   9.6487 144.4381  1.00270207 25406

# C36 (GNSS)
1 43706U 18093A   25266.93426792  .00000008  00000+0  00000+0 0  9990
2 43706  54.1772 191.3303 0008634 296.1866  33.2425  1.86228431 46573

# C37 (GNSS)
1 43707U 18093B   25266.30434492  .00000003  00000+0  00000+0 0  9993
2 43707  54.1780 191.3435 0007421 329.0290  30.9348  1.86230117 46560

# C38 (GNSS)
1 44204U 19023A   25268.10952330 -.00000210  00000+0  00000+0 0  9997
2 44204  58.3249  40.3892 0025732 216.5473 265.3536  1.00268412  4558

# C39 (GNSS)
1 44337U 19035A   25247.72162405 -.00000168  00000+0  00000+0 0  9990
2 44337  55.2150 161.3741 0035069 208.7975 349.2962  1.00246132 22801

# C46 (GNSS)
1 44542U 19061A   25267.44966877  .00000011  00000+0  00000+0 0  9999
2 44542  54.4049 191.6914 0008889   6.4379 353.5879  1.86229453 40846

# C45 (GNSS)
1 44543U 19061B   25266.79379027  .00000007  00000+0  00000+0 0  9997
2 44543  54.4033 191.6817 0005772 353.7190 199.3750  1.86229697 40832

# C40 (GNSS)
1 44709U 19073A   25267.44795222 -.00000166  00000+0  00000+0 0  9993
2 44709  55.2578 283.7701 0045595 191.7985 168.1155  1.00267991 21795

# C44 (GNSS)
1 44793U 19078A   25264.06911623 -.00000063  00000+0  00000+0 0  9997
2 44793  54.1806 309.2870 0004504  28.5534 331.5395  1.86232220 39638

# C43 (GNSS)
1 44794U 19078B   25264.20487954 -.00000064  00000+0  00000+0 0  9990
2 44794  54.1539 309.2489 0002734  22.0184 338.0613  1.86227858 39648
